start=new Date('2023-06-20T00:00:00.000Z').valueOf();
sats=[{"ECCENTRICITY":"0.00012740","CENTER_NAME":"EARTH","LAUNCH_DATE":"2021-05-26","TLE_LINE1":"1 48651U 21044P   23170.74396219  .00023437  00000-0  15859-2 0  9998","SITE":"AFETR","APOAPSIS":"548.013","TLE_LINE2":"2 48651  53.0537 263.6137 0001274  77.3763 282.7368 15.06427146113898","RCS_SIZE":"LARGE","NORAD_CAT_ID":"48651","MEAN_ANOMALY":"282.7368","OBJECT_TYPE":"PAYLOAD","MEAN_MOTION":"15.06427146","REF_FRAME":"TEME","SEMIMAJOR_AXIS":"6925.265","PERIAPSIS":"546.248","MEAN_MOTION_DDOT":"0.0000000000000","DECAY_DATE":null,"ARG_OF_PERICENTER":"77.3763","CLASSIFICATION_TYPE":"U","RA_OF_ASC_NODE":"263.6137","PERIOD":"95.590","MEAN_ELEMENT_THEORY":"SGP4","COUNTRY_CODE":"US","TIME_SYSTEM":"UTC","OBJECT_NAME":"STARLINK-2731","GP_ID":"234317224","EPHEMERIS_TYPE":"0","BSTAR":"0.00158590000000","OBJECT_ID":"2021-044P","MEAN_MOTION_DOT":"0.00023437","EPOCH":"2023-06-19T17:51:18.333216","FILE":"3937509","INCLINATION":"53.0537","REV_AT_EPOCH":"11389","ELEMENT_SET_NO":"999"},{"APOAPSIS":"548.145","TLE_LINE2":"2 48652  53.0543 264.2279 0001361  85.4607 274.6537 15.06403459113871","ECCENTRICITY":"0.00013610","CENTER_NAME":"EARTH","TLE_LINE1":"1 48652U 21044Q   23170.60758757  .00022853  00000-0  15480-2 0  9994","LAUNCH_DATE":"2021-05-26","SITE":"AFETR","MEAN_MOTION":"15.06403459","SEMIMAJOR_AXIS":"6925.338","REF_FRAME":"TEME","RCS_SIZE":"LARGE","NORAD_CAT_ID":"48652","OBJECT_TYPE":"PAYLOAD","MEAN_ANOMALY":"274.6537","CLASSIFICATION_TYPE":"U","RA_OF_ASC_NODE":"264.2279","PERIOD":"95.592","COUNTRY_CODE":"US","MEAN_ELEMENT_THEORY":"SGP4","PERIAPSIS":"546.260","MEAN_MOTION_DDOT":"0.0000000000000","DECAY_DATE":null,"ARG_OF_PERICENTER":"85.4607","OBJECT_ID":"2021-044Q","MEAN_MOTION_DOT":"0.00022853","EPOCH":"2023-06-19T14:34:55.566048","FILE":"3937509","INCLINATION":"53.0543","REV_AT_EPOCH":"11387","ELEMENT_SET_NO":"999","TIME_SYSTEM":"UTC","OBJECT_NAME":"STARLINK-2727","GP_ID":"234317474","EPHEMERIS_TYPE":"0","BSTAR":"0.00154800000000"},{"SEMIMAJOR_AXIS":"6925.377","REF_FRAME":"TEME","MEAN_MOTION":"15.06390626","MEAN_ANOMALY":"274.8907","OBJECT_TYPE":"PAYLOAD","RCS_SIZE":"LARGE","NORAD_CAT_ID":"48653","APOAPSIS":"548.186","TLE_LINE2":"2 48653  53.0536 264.2429 0001362  85.2237 274.8907 15.06390626113873","SITE":"AFETR","ECCENTRICITY":"0.00013620","CENTER_NAME":"EARTH","LAUNCH_DATE":"2021-05-26","TLE_LINE1":"1 48653U 21044R   23170.60391710  .00023952  00000-0  16218-2 0  9998","FILE":"3937509","EPOCH":"2023-06-19T14:29:38.437440","REV_AT_EPOCH":"11387","ELEMENT_SET_NO":"999","INCLINATION":"53.0536","OBJECT_ID":"2021-044R","MEAN_MOTION_DOT":"0.00023952","BSTAR":"0.00162180000000","GP_ID":"234316223","TIME_SYSTEM":"UTC","OBJECT_NAME":"STARLINK-2720","EPHEMERIS_TYPE":"0","MEAN_ELEMENT_THEORY":"SGP4","COUNTRY_CODE":"US","PERIOD":"95.593","CLASSIFICATION_TYPE":"U","RA_OF_ASC_NODE":"264.2429","MEAN_MOTION_DDOT":"0.0000000000000","PERIAPSIS":"546.299","ARG_OF_PERICENTER":"85.2237","DECAY_DATE":null},{"ECCENTRICITY":"0.00012930","CENTER_NAME":"EARTH","LAUNCH_DATE":"2021-05-26","TLE_LINE1":"1 48654U 21044S   23170.73290230  .00015781  00000-0  10758-2 0  9992","SITE":"AFETR","APOAPSIS":"548.091","TLE_LINE2":"2 48654  53.0545 263.6642 0001293  69.9063 290.2065 15.06406012113899","RCS_SIZE":"LARGE","NORAD_CAT_ID":"48654","MEAN_ANOMALY":"290.2065","OBJECT_TYPE":"PAYLOAD","MEAN_MOTION":"15.06406012","REF_FRAME":"TEME","SEMIMAJOR_AXIS":"6925.330","MEAN_MOTION_DDOT":"0.0000000000000","PERIAPSIS":"546.300","ARG_OF_PERICENTER":"69.9063","DECAY_DATE":null,"PERIOD":"95.592","RA_OF_ASC_NODE":"263.6642","CLASSIFICATION_TYPE":"U","MEAN_ELEMENT_THEORY":"SGP4","COUNTRY_CODE":"US","GP_ID":"234316972","OBJECT_NAME":"STARLINK-2651","TIME_SYSTEM":"UTC","EPHEMERIS_TYPE":"0","BSTAR":"0.00107580000000","OBJECT_ID":"2021-044S","MEAN_MOTION_DOT":"0.00015781","FILE":"3937509","EPOCH":"2023-06-19T17:35:22.758720","REV_AT_EPOCH":"11389","ELEMENT_SET_NO":"999","INCLINATION":"53.0545"},{"PERIOD":"95.590","CLASSIFICATION_TYPE":"U","RA_OF_ASC_NODE":"263.6802","COUNTRY_CODE":"US","MEAN_ELEMENT_THEORY":"SGP4","ARG_OF_PERICENTER":"76.9607","DECAY_DATE":null,"MEAN_MOTION_DDOT":"0.0000000000000","PERIAPSIS":"546.242","MEAN_MOTION_DOT":"0.00021604","OBJECT_ID":"2021-044T","ELEMENT_SET_NO":"999","REV_AT_EPOCH":"11389","INCLINATION":"53.0538","EPOCH":"2023-06-19T17:30:04.467168","FILE":"3937509","EPHEMERIS_TYPE":"0","GP_ID":"234317725","OBJECT_NAME":"STARLINK-2657","TIME_SYSTEM":"UTC","BSTAR":"0.00146370000000","TLE_LINE2":"2 48655  53.0538 263.6802 0001281  76.9607 283.1524 15.06427613113890","APOAPSIS":"548.016","LAUNCH_DATE":"2021-05-26","TLE_LINE1":"1 48655U 21044T   23170.72921837  .00021604  00000-0  14637-2 0  9997","CENTER_NAME":"EARTH","ECCENTRICITY":"0.00012810","SITE":"AFETR","MEAN_MOTION":"15.06427613","REF_FRAME":"TEME","SEMIMAJOR_AXIS":"6925.264","NORAD_CAT_ID":"48655","RCS_SIZE":"LARGE","OBJECT_TYPE":"PAYLOAD","MEAN_ANOMALY":"283.1524"},{"REF_FRAME":"TEME","SEMIMAJOR_AXIS":"6925.291","MEAN_MOTION":"15.06418722","MEAN_ANOMALY":"277.9572","OBJECT_TYPE":"PAYLOAD","NORAD_CAT_ID":"48656","RCS_SIZE":"LARGE","APOAPSIS":"547.978","TLE_LINE2":"2 48656  53.0542 264.5900 0001187  82.1551 277.9572 15.06418722114703","SITE":"AFETR","CENTER_NAME":"EARTH","ECCENTRICITY":"0.00011870","LAUNCH_DATE":"2021-05-26","TLE_LINE1":"1 48656U 21044U   23170.52649760  .00023622  00000-0  15986-2 0  9998","FILE":"3937090","EPOCH":"2023-06-19T12:38:09.392640","REV_AT_EPOCH":"11470","ELEMENT_SET_NO":"999","INCLINATION":"53.0542","OBJECT_ID":"2021-044U","MEAN_MOTION_DOT":"0.00023622","BSTAR":"0.00159860000000","GP_ID":"234258781","TIME_SYSTEM":"UTC","OBJECT_NAME":"STARLINK-2701","EPHEMERIS_TYPE":"0","COUNTRY_CODE":"US","MEAN_ELEMENT_THEORY":"SGP4","PERIOD":"95.591","RA_OF_ASC_NODE":"264.5900","CLASSIFICATION_TYPE":"U","MEAN_MOTION_DDOT":"0.0000000000000","PERIAPSIS":"546.334","ARG_OF_PERICENTER":"82.1551","DECAY_DATE":null},{"ELEMENT_SET_NO":"999","REV_AT_EPOCH":"11386","INCLINATION":"53.0535","EPOCH":"2023-06-19T12:32:50.878176","FILE":"3937338","MEAN_MOTION_DOT":"0.00024691","OBJECT_ID":"2021-044V","BSTAR":"0.00166990000000","EPHEMERIS_TYPE":"0","GP_ID":"234286797","TIME_SYSTEM":"UTC","OBJECT_NAME":"STARLINK-2734","COUNTRY_CODE":"US","MEAN_ELEMENT_THEORY":"SGP4","PERIOD":"95.591","RA_OF_ASC_NODE":"264.6099","CLASSIFICATION_TYPE":"U","ARG_OF_PERICENTER":"80.3557","DECAY_DATE":null,"MEAN_MOTION_DDOT":"0.0000000000000","PERIAPSIS":"546.131","SEMIMAJOR_AXIS":"6925.296","REF_FRAME":"TEME","MEAN_MOTION":"15.06417047","OBJECT_TYPE":"PAYLOAD","MEAN_ANOMALY":"279.7600","RCS_SIZE":"LARGE","NORAD_CAT_ID":"48657","TLE_LINE2":"2 48657  53.0535 264.6099 0001488  80.3557 279.7600 15.06417047113863","APOAPSIS":"548.192","SITE":"AFETR","TLE_LINE1":"1 48657U 21044V   23170.52281109  .00024691  00000-0  16699-2 0  9997","LAUNCH_DATE":"2021-05-26","CENTER_NAME":"EARTH","ECCENTRICITY":"0.00014880"},{"DECAY_DATE":null,"ARG_OF_PERICENTER":"83.9783","PERIAPSIS":"546.442","MEAN_MOTION_DDOT":"0.0000000000000","CLASSIFICATION_TYPE":"U","RA_OF_ASC_NODE":"264.6277","PERIOD":"95.591","COUNTRY_CODE":"US","MEAN_ELEMENT_THEORY":"SGP4","EPHEMERIS_TYPE":"0","OBJECT_NAME":"STARLINK-2647","TIME_SYSTEM":"UTC","GP_ID":"234258304","BSTAR":"0.00127420000000","MEAN_MOTION_DOT":"0.00018755","OBJECT_ID":"2021-044W","INCLINATION":"53.0531","REV_AT_EPOCH":"11476","ELEMENT_SET_NO":"999","FILE":"3937096","EPOCH":"2023-06-19T12:27:32.032800","LAUNCH_DATE":"2021-05-26","TLE_LINE1":"1 48658U 21044W   23170.51912075  .00018755  00000-0  12742-2 0  9999","CENTER_NAME":"EARTH","ECCENTRICITY":"0.00010620","SITE":"AFETR","TLE_LINE2":"2 48658  53.0531 264.6277 0001062  83.9783 276.1327 15.06411797114769","APOAPSIS":"547.913","RCS_SIZE":"LARGE","NORAD_CAT_ID":"48658","MEAN_ANOMALY":"276.1327","OBJECT_TYPE":"PAYLOAD","MEAN_MOTION":"15.06411797","REF_FRAME":"TEME","SEMIMAJOR_AXIS":"6925.312"},{"BSTAR":"0.00154170000000","EPHEMERIS_TYPE":"0","TIME_SYSTEM":"UTC","OBJECT_NAME":"STARLINK-2717","GP_ID":"234317225","INCLINATION":"53.0539","ELEMENT_SET_NO":"999","REV_AT_EPOCH":"11387","FILE":"3937509","EPOCH":"2023-06-19T13:57:46.415808","MEAN_MOTION_DOT":"0.00022756","OBJECT_ID":"2021-044X","DECAY_DATE":null,"ARG_OF_PERICENTER":"81.3100","PERIAPSIS":"546.332","MEAN_MOTION_DDOT":"0.0000000000000","COUNTRY_CODE":"US","MEAN_ELEMENT_THEORY":"SGP4","RA_OF_ASC_NODE":"264.3431","CLASSIFICATION_TYPE":"U","PERIOD":"95.592","OBJECT_TYPE":"PAYLOAD","MEAN_ANOMALY":"278.8033","RCS_SIZE":"LARGE","NORAD_CAT_ID":"48659","REF_FRAME":"TEME","SEMIMAJOR_AXIS":"6925.350","MEAN_MOTION":"15.06399423","SITE":"AFETR","TLE_LINE1":"1 48659U 21044X   23170.58178722  .00022756  00000-0  15417-2 0  9998","LAUNCH_DATE":"2021-05-26","CENTER_NAME":"EARTH","ECCENTRICITY":"0.00012760","TLE_LINE2":"2 48659  53.0539 264.3431 0001276  81.3100 278.8033 15.06399423113874","APOAPSIS":"548.099"},{"MEAN_MOTION":"15.06408810","REF_FRAME":"TEME","SEMIMAJOR_AXIS":"6925.322","RCS_SIZE":"LARGE","NORAD_CAT_ID":"48660","MEAN_ANOMALY":"279.0218","OBJECT_TYPE":"PAYLOAD","APOAPSIS":"548.107","TLE_LINE2":"2 48660  53.0535 265.2545 0001329  81.0922 279.0218 15.06408810114685","ECCENTRICITY":"0.00013290","CENTER_NAME":"EARTH","LAUNCH_DATE":"2021-05-26","TLE_LINE1":"1 48660U 21044Y   23170.37906114  .00024622  00000-0  16657-2 0  9992","SITE":"AFETR","OBJECT_ID":"2021-044Y","MEAN_MOTION_DOT":"0.00024622","EPOCH":"2023-06-19T09:05:50.882496","FILE":"3937109","REV_AT_EPOCH":"11468","ELEMENT_SET_NO":"999","INCLINATION":"53.0535","GP_ID":"234258313","OBJECT_NAME":"STARLINK-2688","TIME_SYSTEM":"UTC","EPHEMERIS_TYPE":"0","BSTAR":"0.00166570000000","PERIOD":"95.592","CLASSIFICATION_TYPE":"U","RA_OF_ASC_NODE":"265.2545","MEAN_ELEMENT_THEORY":"SGP4","COUNTRY_CODE":"US","MEAN_MOTION_DDOT":"0.0000000000000","PERIAPSIS":"546.266","ARG_OF_PERICENTER":"81.0922","DECAY_DATE":null}];
